{
  "type": "FeatureCollection",
  "features": [
    {
      "type": "Feature",
      "properties": {
        "norad_id": 24946,
        "name": "IRIDIUM 33",
        "group": "iridium-33-debris",
        "lat": -11.223440718005218,
        "lon": 68.77668256742842,
        "alt_km": 782.8278146153934,
        "timestamp": "2025-12-09T16:56:36.958863+00:00",
        "meta_object_name": "IRIDIUM 33",
        "meta_object_id": "1997-051C",
        "meta_epoch": "2025-12-09T06:57:17.894016",
        "meta_mean_motion": 14.35033739,
        "meta_eccentricity": 0.0006648,
        "meta_inclination": 86.387,
        "meta_ra_of_asc_node": 69.6697,
        "meta_arg_of_pericenter": 213.1217,
        "meta_mean_anomaly": 146.9564,
        "meta_ephemeris_type": 0,
        "meta_classification_type": "U",
        "meta_norad_cat_id": 24946,
        "meta_element_set_no": 999,
        "meta_rev_at_epoch": 47785,
        "meta_bstar": 0.00021762,
        "meta_mean_motion_dot": 6.39e-06,
        "meta_mean_motion_ddot": 0,
        "tle_line1": "1 24946U 97051C   25343.28979044  .00000639  00000+0  21762-3 0  9995",
        "tle_line2": "2 24946  86.3870  69.6697 0006648 213.1217 146.9564 14.35033739477857"
      },
      "geometry": {
        "type": "Point",
        "coordinates": [
          68.77668256742842,
          -11.223440718005218
        ]
      }
    },
    {
      "type": "Feature",
      "properties": {
        "norad_id": 33773,
        "name": "IRIDIUM 33 DEB",
        "group": "iridium-33-debris",
        "lat": -36.35466257607013,
        "lon": -115.47010827619157,
        "alt_km": 749.9993626750602,
        "timestamp": "2025-12-09T16:56:36.958900+00:00",
        "meta_object_name": "IRIDIUM 33 DEB",
        "meta_object_id": "1997-051L",
        "meta_epoch": "2025-12-09T10:57:11.199168",
        "meta_mean_motion": 14.43246661,
        "meta_eccentricity": 0.0012165,
        "meta_inclination": 86.4015,
        "meta_ra_of_asc_node": 61.9808,
        "meta_arg_of_pericenter": 156.1113,
        "meta_mean_anomaly": 204.0655,
        "meta_ephemeris_type": 0,
        "meta_classification_type": "U",
        "meta_norad_cat_id": 33773,
        "meta_element_set_no": 999,
        "meta_rev_at_epoch": 88300,
        "meta_bstar": 0.00055764,
        "meta_mean_motion_dot": 1.897e-05,
        "meta_mean_motion_ddot": 0,
        "tle_line1": "1 33773U 97051L   25343.45637962  .00001897  00000+0  55764-3 0  9998",
        "tle_line2": "2 33773  86.4015  61.9808 0012165 156.1113 204.0655 14.43246661883002"
      },
      "geometry": {
        "type": "Point",
        "coordinates": [
          -115.47010827619157,
          -36.35466257607013
        ]
      }
    },
    {
      "type": "Feature",
      "properties": {
        "norad_id": 33775,
        "name": "IRIDIUM 33 DEB",
        "group": "iridium-33-debris",
        "lat": -40.71066897166122,
        "lon": 47.71230052926372,
        "alt_km": 769.3302113744494,
        "timestamp": "2025-12-09T16:56:36.958916+00:00",
        "meta_object_name": "IRIDIUM 33 DEB",
        "meta_object_id": "1997-051N",
        "meta_epoch": "2025-12-09T10:31:23.462400",
        "meta_mean_motion": 14.41458397,
        "meta_eccentricity": 0.0013918,
        "meta_inclination": 86.364,
        "meta_ra_of_asc_node": 50.9629,
        "meta_arg_of_pericenter": 164.8462,
        "meta_mean_anomaly": 207.0419,
        "meta_ephemeris_type": 0,
        "meta_classification_type": "U",
        "meta_norad_cat_id": 33775,
        "meta_element_set_no": 999,
        "meta_rev_at_epoch": 88093,
        "meta_bstar": 0.00059353,
        "meta_mean_motion_dot": 1.946e-05,
        "meta_mean_motion_ddot": 0,
        "tle_line1": "1 33775U 97051N   25343.43846600  .00001946  00000+0  59353-3 0  9992",
        "tle_line2": "2 33775  86.3640  50.9629 0013918 164.8462 207.0419 14.41458397880935"
      },
      "geometry": {
        "type": "Point",
        "coordinates": [
          47.71230052926372,
          -40.71066897166122
        ]
      }
    },
    {
      "type": "Feature",
      "properties": {
        "norad_id": 33776,
        "name": "IRIDIUM 33 DEB",
        "group": "iridium-33-debris",
        "lat": -44.216272888315764,
        "lon": -94.44202442116419,
        "alt_km": 762.0056579919292,
        "timestamp": "2025-12-09T16:56:36.958930+00:00",
        "meta_object_name": "IRIDIUM 33 DEB",
        "meta_object_id": "1997-051P",
        "meta_epoch": "2025-12-09T12:36:53.784000",
        "meta_mean_motion": 14.38227239,
        "meta_eccentricity": 0.0013958,
        "meta_inclination": 86.4038,
        "meta_ra_of_asc_node": 82.1255,
        "meta_arg_of_pericenter": 201.1241,
        "meta_mean_anomaly": 169.799,
        "meta_ephemeris_type": 0,
        "meta_classification_type": "U",
        "meta_norad_cat_id": 33776,
        "meta_element_set_no": 999,
        "meta_rev_at_epoch": 88036,
        "meta_bstar": 0.00059847,
        "meta_mean_motion_dot": 1.839e-05,
        "meta_mean_motion_ddot": 0,
        "tle_line1": "1 33776U 97051P   25343.52562250  .00001839  00000+0  59847-3 0  9998",
        "tle_line2": "2 33776  86.4038  82.1255 0013958 201.1241 169.7990 14.38227239880364"
      },
      "geometry": {
        "type": "Point",
        "coordinates": [
          -94.44202442116419,
          -44.216272888315764
        ]
      }
    },
    {
      "type": "Feature",
      "properties": {
        "norad_id": 33777,
        "name": "IRIDIUM 33 DEB",
        "group": "iridium-33-debris",
        "lat": -2.539100566903629,
        "lon": -143.31609318252887,
        "alt_km": 710.3469619322686,
        "timestamp": "2025-12-09T16:56:36.958942+00:00",
        "meta_object_name": "IRIDIUM 33 DEB",
        "meta_object_id": "1997-051Q",
        "meta_epoch": "2025-12-09T09:30:28.800288",
        "meta_mean_motion": 14.5557564,
        "meta_eccentricity": 0.0005065,
        "meta_inclination": 86.3783,
        "meta_ra_of_asc_node": 36.6577,
        "meta_arg_of_pericenter": 264.7924,
        "meta_mean_anomaly": 95.2705,
        "meta_ephemeris_type": 0,
        "meta_classification_type": "U",
        "meta_norad_cat_id": 33777,
        "meta_element_set_no": 999,
        "meta_rev_at_epoch": 88485,
        "meta_bstar": 0.0013749,
        "meta_mean_motion_dot": 6.014e-05,
        "meta_mean_motion_ddot": 0,
        "tle_line1": "1 33777U 97051Q   25343.39616667  .00006014  00000+0  13749-2 0  9996",
        "tle_line2": "2 33777  86.3783  36.6577 0005065 264.7924  95.2705 14.55575640884851"
      },
      "geometry": {
        "type": "Point",
        "coordinates": [
          -143.31609318252887,
          -2.539100566903629
        ]
      }
    },
    {
      "type": "Feature",
      "properties": {
        "norad_id": 33850,
        "name": "IRIDIUM 33 DEB",
        "group": "iridium-33-debris",
        "lat": -66.93732957206292,
        "lon": 22.842734521153023,
        "alt_km": 763.3210696896549,
        "timestamp": "2025-12-09T16:56:36.958954+00:00",
        "meta_object_name": "IRIDIUM 33 DEB",
        "meta_object_id": "1997-051T",
        "meta_epoch": "2025-12-09T04:12:04.722624",
        "meta_mean_motion": 14.42134483,
        "meta_eccentricity": 0.00118428,
        "meta_inclination": 86.342,
        "meta_ra_of_asc_node": 31.7125,
        "meta_arg_of_pericenter": 172.0555,
        "meta_mean_anomaly": 246.0053,
        "meta_ephemeris_type": 0,
        "meta_classification_type": "U",
        "meta_norad_cat_id": 33850,
        "meta_element_set_no": 999,
        "meta_rev_at_epoch": 88101,
        "meta_bstar": 0.00048335793,
        "meta_mean_motion_dot": 1.61e-05,
        "meta_mean_motion_ddot": 0,
        "tle_line1": "1 33850U 97051T   25343.17505466  .00001610  00000+0  48336-3 0  9996",
        "tle_line2": "2 33850  86.3420  31.7125 0011842 172.0555 246.0053 14.42134483881016"
      },
      "geometry": {
        "type": "Point",
        "coordinates": [
          22.842734521153023,
          -66.93732957206292
        ]
      }
    },
    {
      "type": "Feature",
      "properties": {
        "norad_id": 33853,
        "name": "IRIDIUM 33 DEB",
        "group": "iridium-33-debris",
        "lat": 65.34547516075358,
        "lon": -0.08937425997865589,
        "alt_km": 1041.444101625818,
        "timestamp": "2025-12-09T16:56:36.958967+00:00",
        "meta_object_name": "IRIDIUM 33 DEB",
        "meta_object_id": "1997-051W",
        "meta_epoch": "2025-12-09T12:13:24.015936",
        "meta_mean_motion": 13.99031995,
        "meta_eccentricity": 0.0206978,
        "meta_inclination": 85.9998,
        "meta_ra_of_asc_node": 351.2277,
        "meta_arg_of_pericenter": 245.8173,
        "meta_mean_anomaly": 269.932,
        "meta_ephemeris_type": 0,
        "meta_classification_type": "U",
        "meta_norad_cat_id": 33853,
        "meta_element_set_no": 999,
        "meta_rev_at_epoch": 85300,
        "meta_bstar": 0.002996,
        "meta_mean_motion_dot": 5.22e-05,
        "meta_mean_motion_ddot": 0,
        "tle_line1": "1 33853U 97051W   25343.50930574  .00005220  00000+0  29960-2 0  9990",
        "tle_line2": "2 33853  85.9998 351.2277 0206978 245.8173 269.9320 13.99031995853007"
      },
      "geometry": {
        "type": "Point",
        "coordinates": [
          -0.08937425997865589,
          65.34547516075358
        ]
      }
    }
  ]
}